{"type": "FeatureCollection", "features": [ {"type": "Feature", "properties": {"norad_id": 28649, "name": "IRS-P5 (CARTOSAT-1)", "group": "resource", "lat": -36.88555701847377, "lon": -165.9019801470386, "alt_km": 603.5905186787495, "timestamp": "2025-12-19T16:54:43.907452+00:00", "meta": {"OBJECT_NAME": "IRS-P5 (CARTOSAT-1)", "OBJECT_ID": "2005-017A", "EPOCH": "2025-12-19T01:26:21.591168", "MEAN_MOTION": 14.90425359, "ECCENTRICITY": 8.495e-05, "INCLINATION": 97.5487, "RA_OF_ASC_NODE": 19.193, "ARG_OF_PERICENTER": 48.6055, "MEAN_ANOMALY": 311.5236, "EPHEMERIS_TYPE": 0, "CLASSIFICATION_TYPE": "U", "NORAD_CAT_ID": 28649, "ELEMENT_SET_NO": 999, "REV_AT_EPOCH": 11698, "BSTAR": 0.00012132886, "MEAN_MOTION_DOT": 1.13e-05, "MEAN_MOTION_DDOT": 0}, "tle": {"line1": "1 28649U 05017A   25353.05997212  .00001130  00000+0  12133-3 0  9992", "line2": "2 28649  97.5487  19.1930 0000849  48.6055 311.5236 14.90425359116981"}}, "geometry": {"type": "Point", "coordinates": [-165.9019801470386, -36.88555701847377]}}, {"type": "Feature", "properties": {"norad_id": 28893, "name": "SINAH 1", "group": "resource", "lat": -81.64191806936535, "lon": -139.15171754113513, "alt_km": 697.476290549901, "timestamp": "2025-12-19T16:54:43.907463+00:00", "meta": {"OBJECT_NAME": "SINAH 1", "OBJECT_ID": "2005-043D", "EPOCH": "2025-12-19T07:29:14.925984", "MEAN_MOTION": 14.63969123, "ECCENTRICITY": 0.00156038, "INCLINATION": 98.2607, "RA_OF_ASC_NODE": 121.8869, "ARG_OF_PERICENTER": 117.7351, "MEAN_ANOMALY": 242.5436, "EPHEMERIS_TYPE": 0, "CLASSIFICATION_TYPE": "U", "NORAD_CAT_ID": 28893, "ELEMENT_SET_NO": 999, "REV_AT_EPOCH": 7420, "BSTAR": 6.8831896e-05, "MEAN_MOTION_DOT": 3.12e-06, "MEAN_MOTION_DDOT": 0}, "tle": {"line1": "1 28893U 05043D   25353.31197831  .00000312  00000+0  68832-4 0  9999", "line2": "2 28893  98.2607 121.8869 0015603 117.7351 242.5436 14.63969123 74202"}}, "geometry": {"type": "Point", "coordinates": [-139.15171754113513, -81.64191806936535]}}, {"type": "Feature", "properties": {"norad_id": 29079, "name": "EROS B", "group": "resource", "lat": 36.3439398416806, "lon": 105.17340192668593, "alt_km": 355.2128957762243, "timestamp": "2025-12-19T16:54:43.907475+00:00", "meta": {"OBJECT_NAME": "EROS B", "OBJECT_ID": "2006-014A", "EPOCH": "2025-12-19T07:34:49.775232", "MEAN_MOTION": 15.70309739, "ECCENTRICITY": 0.00033826, "INCLINATION": 97.3468, "RA_OF_ASC_NODE": 110.2123, "ARG_OF_PERICENTER": 310.7208, "MEAN_ANOMALY": 49.376, "EPHEMERIS_TYPE": 0, "CLASSIFICATION_TYPE": "U", "NORAD_CAT_ID": 29079, "ELEMENT_SET_NO": 999, "REV_AT_EPOCH": 9183, "BSTAR": 0.0010900706, "MEAN_MOTION_DOT": 0.00134289, "MEAN_MOTION_DDOT": 0}, "tle": {"line1": "1 29079U 06014A   25353.31585388  .00134289  00000+0  10901-2 0  9996", "line2": "2 29079  97.3468 110.2123 0003382 310.7208  49.3760 15.70309739 91837"}}, "geometry": {"type": "Point", "coordinates": [105.17340192668593, 36.3439398416806]}}, {"type": "Feature", "properties": {"norad_id": 29228, "name": "RESURS-DK 1", "group": "resource", "lat": -26.173953291994156, "lon": 73.48947801587767, "alt_km": 533.7026852176077, "timestamp": "2025-12-19T16:54:43.907486+00:00", "meta": {"OBJECT_NAME": "RESURS-DK 1", "OBJECT_ID": "2006-021A", "EPOCH": "2025-12-19T05:55:22.529856", "MEAN_MOTION": 15.12195361, "ECCENTRICITY": 0.00068759, "INCLINATION": 69.9339, "RA_OF_ASC_NODE": 85.022, "ARG_OF_PERICENTER": 253.8547, "MEAN_ANOMALY": 106.1863, "EPHEMERIS_TYPE": 0, "CLASSIFICATION_TYPE": "U", "NORAD_CAT_ID": 29228, "ELEMENT_SET_NO": 999, "REV_AT_EPOCH": 7536, "BSTAR": 0.00011683475, "MEAN_MOTION_DOT": 1.915e-05, "MEAN_MOTION_DDOT": 0}, "tle": {"line1": "1 29228U 06021A   25353.24678854  .00001915  00000+0  11683-3 0  9991", "line2": "2 29228  69.9339  85.0220 0006875 253.8547 106.1863 15.12195361 75361"}}, "geometry": {"type": "Point", "coordinates": [73.48947801587767, -26.173953291994156]}}, {"type": "Feature", "properties": {"norad_id": 29268, "name": "ARIRANG-2 (KOMPSAT-2)", "group": "resource", "lat": -7.075050552373232, "lon": 0.8592883260617041, "alt_km": 683.9120602463727, "timestamp": "2025-12-19T16:54:43.907498+00:00", "meta": {"OBJECT_NAME": "ARIRANG-2 (KOMPSAT-2)", "OBJECT_ID": "2006-031A", "EPOCH": "2025-12-19T08:25:12.253728", "MEAN_MOTION": 14.64499138, "ECCENTRICITY": 0.00132307, "INCLINATION": 97.8254, "RA_OF_ASC_NODE": 181.5009, "ARG_OF_PERICENTER": 286.542, "MEAN_ANOMALY": 196.2446, "EPHEMERIS_TYPE": 0, "CLASSIFICATION_TYPE": "U", "NORAD_CAT_ID": 29268, "ELEMENT_SET_NO": 999, "REV_AT_EPOCH": 3515, "BSTAR": 4.9019553e-05, "MEAN_MOTION_DOT": 2.15e-06, "MEAN_MOTION_DDOT": 0}, "tle": {"line1": "1 29268U 06031A   25353.35083627  .00000215  00000+0  49020-4 0  9995", "line2": "2 29268  97.8254 181.5009 0013230 286.5420 196.2446 14.64499138 35159"}}, "geometry": {"type": "Point", "coordinates": [0.8592883260617041, -7.075050552373232]}}, {"type": "Feature", "properties": {"norad_id": 29709, "name": "LAPAN-TUBSAT", "group": "resource", "lat": -66.5804362116043, "lon": 3.2633036169494978, "alt_km": 623.5543856763261, "timestamp": "2025-12-19T16:54:43.907509+00:00", "meta": {"OBJECT_NAME": "LAPAN-TUBSAT", "OBJECT_ID": "2007-001A", "EPOCH": "2025-12-19T05:54:10.055808", "MEAN_MOTION": 14.85678566, "ECCENTRICITY": 0.00134388, "INCLINATION": 98.1251, "RA_OF_ASC_NODE": 343.5366, "ARG_OF_PERICENTER": 54.7711, "MEAN_ANOMALY": 305.476, "EPHEMERIS_TYPE": 0, "CLASSIFICATION_TYPE": "U", "NORAD_CAT_ID": 29709, "ELEMENT_SET_NO": 999, "REV_AT_EPOCH": 2443, "BSTAR": 2.4501631e-05, "MEAN_MOTION_DOT": 1.55e-06, "MEAN_MOTION_DDOT": 0}, "tle": {"line1": "1 29709U 07001A   25353.24594972  .00000155  00000+0  24502-4 0  9992", "line2": "2 29709  98.1251 343.5366 0013438  54.7711 305.4760 14.85678566 24433"}}, "geometry": {"type": "Point", "coordinates": [3.2633036169494978, -66.5804362116043]}}, {"type": "Feature", "properties": {"norad_id": 31113, "name": "HAIYANG-1B", "group": "resource", "lat": -66.17107523650566, "lon": 138.3163754100018, "alt_km": 802.2321148096908, "timestamp": "2025-12-19T16:54:43.907520+00:00", "meta": {"OBJECT_NAME": "HAIYANG-1B", "OBJECT_ID": "2007-010A", "EPOCH": "2025-12-18T22:58:37.050528", "MEAN_MOTION": 14.3096715, "ECCENTRICITY": 0.00139689, "INCLINATION": 98.3319, "RA_OF_ASC_NODE": 336.9788, "ARG_OF_PERICENTER": 20.3942, "MEAN_ANOMALY": 339.7797, "EPHEMERIS_TYPE": 0, "CLASSIFICATION_TYPE": "U", "NORAD_CAT_ID": 31113, "ELEMENT_SET_NO": 999, "REV_AT_EPOCH": 97485, "BSTAR": 4.9048462e-05, "MEAN_MOTION_DOT": 8.7e-07, "MEAN_MOTION_DDOT": 0}, "tle": {"line1": "1 31113U 07010A   25352.95737327  .00000087  00000+0  49048-4 0  9990", "line2": "2 31113  98.3319 336.9788 0013968  20.3942 339.7797 14.30967150974859"}}, "geometry": {"type": "Point", "coordinates": [138.3163754100018, -66.17107523650566]}}, {"type": "Feature", "properties": {"norad_id": 31598, "name": "COSMO-SKYMED 1", "group": "resource", "lat": 38.04146761760131, "lon": 5.373509040482935, "alt_km": 576.4684528179041, "timestamp": "2025-12-19T16:54:43.907531+00:00", "meta": {"OBJECT_NAME": "COSMO-SKYMED 1", "OBJECT_ID": "2007-023A", "EPOCH": "2025-12-19T06:38:57.530400", "MEAN_MOTION": 14.95814401, "ECCENTRICITY": 0.00015764, "INCLINATION": 97.8836, "RA_OF_ASC_NODE": 178.719, "ARG_OF_PERICENTER": 86.1612, "MEAN_ANOMALY": 273.9789, "EPHEMERIS_TYPE": 0, "CLASSIFICATION_TYPE": "U", "NORAD_CAT_ID": 31598, "ELEMENT_SET_NO": 999, "REV_AT_EPOCH": 288, "BSTAR": 0.00030160591, "MEAN_MOTION_DOT": 3.308e-05, "MEAN_MOTION_DDOT": 0}, "tle": {"line1": "1 31598U 07023A   25353.27705475  .00003308  00000+0  30161-3 0  9990", "line2": "2 31598  97.8836 178.7190 0001576  86.1612 273.9789 14.95814401  2885"}}, "geometry": {"type": "Point", "coordinates": [5.373509040482935, 38.04146761760131]}}, {"type": "Feature", "properties": {"norad_id": 31698, "name": "TERRASAR-X", "group": "resource", "lat": 21.527994110125082, "lon": -3.9730636407407505, "alt_km": 507.78672073620874, "timestamp": "2025-12-19T16:54:43.907542+00:00", "meta": {"OBJECT_NAME": "TERRASAR-X", "OBJECT_ID": "2007-026A", "EPOCH": "2025-12-18T12:21:42.553440", "MEAN_MOTION": 15.19151199, "ECCENTRICITY": 0.00018406, "INCLINATION": 97.4454, "RA_OF_ASC_NODE": 357.8116, "ARG_OF_PERICENTER": 91.5233, "MEAN_ANOMALY": 268.6213, "EPHEMERIS_TYPE": 0, "CLASSIFICATION_TYPE": "U", "NORAD_CAT_ID": 31698, "ELEMENT_SET_NO": 999, "REV_AT_EPOCH": 2579, "BSTAR": 3.8823467e-05, "MEAN_MOTION_DOT": 7.48e-06, "MEAN_MOTION_DDOT": 0}, "tle": {"line1": "1 31698U 07026A   25352.51507585  .00000748  00000+0  38823-4 0  9991", "line2": "2 31698  97.4454 357.8116 0001840  91.5233 268.6213 15.19151199 25792"}}, "geometry": {"type": "Point", "coordinates": [-3.9730636407407505, 21.527994110125082]}}, {"type": "Feature", "properties": {"norad_id": 32060, "name": "WORLDVIEW-1 (WV-1)", "group": "resource", "lat": 16.453348548872153, "lon": -66.7171088034315, "alt_km": 491.6630965253953, "timestamp": "2025-12-19T16:54:43.907553+00:00", "meta": {"OBJECT_NAME": "WORLDVIEW-1 (WV-1)", "OBJECT_ID": "2007-041A", "EPOCH": "2025-12-19T06:44:54.483360", "MEAN_MOTION": 15.24792332, "ECCENTRICITY": 9.536e-05, "INCLINATION": 97.3841, "RA_OF_ASC_NODE": 110.6704, "ARG_OF_PERICENTER": 118.2645, "MEAN_ANOMALY": 241.869, "EPHEMERIS_TYPE": 0, "CLASSIFICATION_TYPE": "U", "NORAD_CAT_ID": 32060, "ELEMENT_SET_NO": 999, "REV_AT_EPOCH": 1547, "BSTAR": 0.00027187849, "MEAN_MOTION_DOT": 6.672e-05, "MEAN_MOTION_DDOT": 0}, "tle": {"line1": "1 32060U 07041A   25353.28118615  .00006672  00000+0  27188-3 0  9992", "line2": "2 32060  97.3841 110.6704 0000953 118.2645 241.8690 15.24792332 15473"}}, "geometry": {"type": "Point", "coordinates": [-66.7171088034315, 16.453348548872153]}}]}